SAUDISAT 1C             
1 27607U 02058C   23026.31883638  .00002302  00000+0  33192-3 0  9997
2 27607  64.5573 339.6811 0079177 252.2680 106.9770 14.76664577 81272
SAUDISAT 2              
1 28371U 04025F   23026.43138220  .00000609  00000+0  15276-3 0  9996
2 28371  98.4105 349.0061 0026109 137.2575 223.0654 14.54720347985709
SAUDISAT 3              
1 31118U 07012B   23026.39026729  .00000657  00000+0  11898-3 0  9992
2 31118  97.9978 333.3792 0014512 201.3762 158.6839 14.69486865845845
PISAT                   
1 41784U 16059B   23026.62789141  .00001380  00000+0  26874-3 0  9997
2 41784  97.8892  65.9838 0031546 181.1673 178.9462 14.64255218338340
FLYING LAPTOP           
1 42831U 17042G   23026.31962950  .00003102  00000+0  30756-3 0  9999
2 42831  97.3982 232.5763 0013332 348.4124  11.6765 14.92400359301326
SALSAT                  
1 46495U 20068K   23026.41705241  .00005144  00000+0  35736-3 0  9991
2 46495  97.7546 333.2508 0014550 238.1892 121.7918 15.05908001127727
